CCSDS_OMM_VERS = 2.0
CREATION_DATE  = 
ORIGINATOR     = 

OBJECT_NAME    = SL-14 R/B
OBJECT_ID      = 1986-046B
CENTER_NAME    = EARTH
REF_FRAME      = TEME
TIME_SYSTEM    = UTC
MEAN_ELEMENT_THEORY = SGP/SGP4

EPOCH          = 2026-02-26T03:42:59.930784
MEAN_MOTION    = 14.85577231
ECCENTRICITY   = .00215428
INCLINATION    = 82.4788
RA_OF_ASC_NODE = 91.0841
ARG_OF_PERICENTER = 265.8616
MEAN_ANOMALY   = 94.0138

EPHEMERIS_TYPE = 0
CLASSIFICATION_TYPE = U
NORAD_CAT_ID   = 16792
ELEMENT_SET_NO = 999
REV_AT_EPOCH   = 12469
BSTAR          = .43961742E-4
MEAN_MOTION_DOT = .405E-5
MEAN_MOTION_DDOT = 0

CCSDS_OMM_VERS = 2.0
CREATION_DATE  = 
ORIGINATOR     = 

OBJECT_NAME    = SL-14 R/B
OBJECT_ID      = 1986-055B
CENTER_NAME    = EARTH
REF_FRAME      = TEME
TIME_SYSTEM    = UTC
MEAN_ELEMENT_THEORY = SGP/SGP4

EPOCH          = 2026-02-26T06:50:47.757408
MEAN_MOTION    = 14.85630235
ECCENTRICITY   = .00191866
INCLINATION    = 82.5223
RA_OF_ASC_NODE = 137.3919
ARG_OF_PERICENTER = 14.6545
MEAN_ANOMALY   = 45.1595

EPHEMERIS_TYPE = 0
CLASSIFICATION_TYPE = U
NORAD_CAT_ID   = 16882
ELEMENT_SET_NO = 999
REV_AT_EPOCH   = 11767
BSTAR          = .48886627E-4
MEAN_MOTION_DOT = .449E-5
MEAN_MOTION_DDOT = 0

CCSDS_OMM_VERS = 2.0
CREATION_DATE  = 
ORIGINATOR     = 

OBJECT_NAME    = AJISAI (EGS)
OBJECT_ID      = 1986-061A
CENTER_NAME    = EARTH
REF_FRAME      = TEME
TIME_SYSTEM    = UTC
MEAN_ELEMENT_THEORY = SGP/SGP4

EPOCH          = 2026-02-26T07:18:06.697152
MEAN_MOTION    = 12.44515474
ECCENTRICITY   = .00112364
INCLINATION    = 50.0084
RA_OF_ASC_NODE = 128.3590
ARG_OF_PERICENTER = 257.6678
MEAN_ANOMALY   = 137.3100

EPHEMERIS_TYPE = 0
CLASSIFICATION_TYPE = U
NORAD_CAT_ID   = 16908
ELEMENT_SET_NO = 999
REV_AT_EPOCH   = 46658
BSTAR          = -.46547172E-4
MEAN_MOTION_DOT = -.104E-5
MEAN_MOTION_DDOT = 0

CCSDS_OMM_VERS = 2.0
CREATION_DATE  = 
ORIGINATOR     = 

OBJECT_NAME    = SL-14 R/B
OBJECT_ID      = 1987-024B
CENTER_NAME    = EARTH
REF_FRAME      = TEME
TIME_SYSTEM    = UTC
MEAN_ELEMENT_THEORY = SGP/SGP4

EPOCH          = 2026-02-26T04:37:09.687936
MEAN_MOTION    = 14.86119655
ECCENTRICITY   = .00168418
INCLINATION    = 82.5261
RA_OF_ASC_NODE = 103.5721
ARG_OF_PERICENTER = 301.4290
MEAN_ANOMALY   = 58.5279

EPHEMERIS_TYPE = 0
CLASSIFICATION_TYPE = U
NORAD_CAT_ID   = 17567
ELEMENT_SET_NO = 999
REV_AT_EPOCH   = 8642
BSTAR          = .44830407E-4
MEAN_MOTION_DOT = .418E-5
MEAN_MOTION_DDOT = 0

CCSDS_OMM_VERS = 2.0
CREATION_DATE  = 
ORIGINATOR     = 

OBJECT_NAME    = COSMOS 1833
OBJECT_ID      = 1987-027A
CENTER_NAME    = EARTH
REF_FRAME      = TEME
TIME_SYSTEM    = UTC
MEAN_ELEMENT_THEORY = SGP/SGP4

EPOCH          = 2026-02-26T06:01:07.970880
MEAN_MOTION    = 14.13056832
ECCENTRICITY   = .00247206
INCLINATION    = 70.9234
RA_OF_ASC_NODE = 350.0581
ARG_OF_PERICENTER = 230.2235
MEAN_ANOMALY   = 129.6709

EPHEMERIS_TYPE = 0
CLASSIFICATION_TYPE = U
NORAD_CAT_ID   = 17589
ELEMENT_SET_NO = 999
REV_AT_EPOCH   = 870
BSTAR          = -.32872014E-4
MEAN_MOTION_DOT = -.11E-5
MEAN_MOTION_DDOT = 0

CCSDS_OMM_VERS = 2.0
CREATION_DATE  = 
ORIGINATOR     = 

OBJECT_NAME    = SL-16 R/B
OBJECT_ID      = 1987-027B
CENTER_NAME    = EARTH
REF_FRAME      = TEME
TIME_SYSTEM    = UTC
MEAN_ELEMENT_THEORY = SGP/SGP4

EPOCH          = 2026-02-26T02:47:39.835392
MEAN_MOTION    = 14.17167205
ECCENTRICITY   = .0004016
INCLINATION    = 71.0030
RA_OF_ASC_NODE = 300.8841
ARG_OF_PERICENTER = 165.4097
MEAN_ANOMALY   = 194.7144

EPHEMERIS_TYPE = 0
CLASSIFICATION_TYPE = U
NORAD_CAT_ID   = 17590
ELEMENT_SET_NO = 999
REV_AT_EPOCH   = 1370
BSTAR          = .1136356E-4
MEAN_MOTION_DOT = -.25E-6
MEAN_MOTION_DDOT = 0

CCSDS_OMM_VERS = 2.0
CREATION_DATE  = 
ORIGINATOR     = 

OBJECT_NAME    = SL-14 R/B
OBJECT_ID      = 1987-038B
CENTER_NAME    = EARTH
REF_FRAME      = TEME
TIME_SYSTEM    = UTC
MEAN_ELEMENT_THEORY = SGP/SGP4

EPOCH          = 2026-02-26T04:21:23.735808
MEAN_MOTION    = 14.85357352
ECCENTRICITY   = .00186636
INCLINATION    = 82.5022
RA_OF_ASC_NODE = 307.6484
ARG_OF_PERICENTER = 198.3729
MEAN_ANOMALY   = 161.6816

EPHEMERIS_TYPE = 0
CLASSIFICATION_TYPE = U
NORAD_CAT_ID   = 17912
ELEMENT_SET_NO = 999
REV_AT_EPOCH   = 7752
BSTAR          = .46937837E-4
MEAN_MOTION_DOT = .429E-5
MEAN_MOTION_DDOT = 0

CCSDS_OMM_VERS = 2.0
CREATION_DATE  = 
ORIGINATOR     = 

OBJECT_NAME    = COSMOS 1844
OBJECT_ID      = 1987-041A
CENTER_NAME    = EARTH
REF_FRAME      = TEME
TIME_SYSTEM    = UTC
MEAN_ELEMENT_THEORY = SGP/SGP4

EPOCH          = 2026-02-26T05:27:26.021664
MEAN_MOTION    = 14.14552807
ECCENTRICITY   = .00294153
INCLINATION    = 70.8988
RA_OF_ASC_NODE = 58.3524
ARG_OF_PERICENTER = 35.5611
MEAN_ANOMALY   = 324.7464

EPHEMERIS_TYPE = 0
CLASSIFICATION_TYPE = U
NORAD_CAT_ID   = 17973
ELEMENT_SET_NO = 999
REV_AT_EPOCH   = 196
BSTAR          = .37032319E-4
MEAN_MOTION_DOT = .23E-6
MEAN_MOTION_DDOT = 0

CCSDS_OMM_VERS = 2.0
CREATION_DATE  = 
ORIGINATOR     = 

OBJECT_NAME    = SL-14 R/B
OBJECT_ID      = 1987-055B
CENTER_NAME    = EARTH
REF_FRAME      = TEME
TIME_SYSTEM    = UTC
MEAN_ELEMENT_THEORY = SGP/SGP4

EPOCH          = 2026-02-25T08:27:14.511456
MEAN_MOTION    = 14.85611743
ECCENTRICITY   = .00220351
INCLINATION    = 82.5021
RA_OF_ASC_NODE = 0.6556
ARG_OF_PERICENTER = 56.7873
MEAN_ANOMALY   = 303.5451

EPHEMERIS_TYPE = 0
CLASSIFICATION_TYPE = U
NORAD_CAT_ID   = 18153
ELEMENT_SET_NO = 999
REV_AT_EPOCH   = 6810
BSTAR          = .60986563E-4
MEAN_MOTION_DOT = .554E-5
MEAN_MOTION_DDOT = 0

CCSDS_OMM_VERS = 2.0
CREATION_DATE  = 
ORIGINATOR     = 

OBJECT_NAME    = COSMOS 1867
OBJECT_ID      = 1987-060A
CENTER_NAME    = EARTH
REF_FRAME      = TEME
TIME_SYSTEM    = UTC
MEAN_ELEMENT_THEORY = SGP/SGP4

EPOCH          = 2026-02-26T04:38:42.950688
MEAN_MOTION    = 14.31501005
ECCENTRICITY   = .00142922
INCLINATION    = 65.0125
RA_OF_ASC_NODE = 338.8991
ARG_OF_PERICENTER = 277.9519
MEAN_ANOMALY   = 81.9944

EPHEMERIS_TYPE = 0
CLASSIFICATION_TYPE = U
NORAD_CAT_ID   = 18187
ELEMENT_SET_NO = 999
REV_AT_EPOCH   = 1829
BSTAR          = .32612629E-4
MEAN_MOTION_DOT = -.13E-6
MEAN_MOTION_DDOT = 0

CCSDS_OMM_VERS = 2.0
CREATION_DATE  = 
ORIGINATOR     = 

OBJECT_NAME    = SL-14 R/B
OBJECT_ID      = 1988-001B
CENTER_NAME    = EARTH
REF_FRAME      = TEME
TIME_SYSTEM    = UTC
MEAN_ELEMENT_THEORY = SGP/SGP4

EPOCH          = 2026-02-25T22:52:11.068032
MEAN_MOTION    = 14.85510591
ECCENTRICITY   = .0016594
INCLINATION    = 82.5131
RA_OF_ASC_NODE = 206.3972
ARG_OF_PERICENTER = 277.8941
MEAN_ANOMALY   = 82.0392

EPHEMERIS_TYPE = 0
CLASSIFICATION_TYPE = U
NORAD_CAT_ID   = 18749
ELEMENT_SET_NO = 999
REV_AT_EPOCH   = 4028
BSTAR          = .58963E-4
MEAN_MOTION_DOT = .534E-5
MEAN_MOTION_DDOT = 0

