SL-14 R/B               
1 16792U 86046B   26057.15486031  .00000405  00000+0  43962-4 0  9993
2 16792  82.4788  91.0841 0021542 265.8616  94.0138 14.85577231124695
SL-14 R/B               
1 16882U 86055B   26057.28527497  .00000449  00000+0  48887-4 0  9998
2 16882  82.5223 137.3919 0019186  14.6545  45.1595 14.85630235117670
AJISAI (EGS)            
1 16908U 86061A   26057.30424418 -.00000104  00000+0 -46547-4 0  9997
2 16908  50.0084 128.3590 0011236 257.6678 137.3100 12.44515474466586
SL-14 R/B               
1 17567U 87024B   26057.19247324  .00000418  00000+0  44830-4 0  9994
2 17567  82.5261 103.5721 0016841 301.4290  58.5279 14.86119655 86422
COSMOS 1833             
1 17589U 87027A   26057.25078670 -.00000110  00000+0 -32872-4 0  9998
2 17589  70.9234 350.0581 0024720 230.2235 129.6709 14.13056832  8703
SL-16 R/B               
1 17590U 87027B   26057.11643328 -.00000025  00000+0  11364-4 0  9990
2 17590  71.0030 300.8841 0004016 165.4097 194.7144 14.17167205 13707
SL-14 R/B               
1 17912U 87038B   26057.18152472  .00000429  00000+0  46938-4 0  9994
2 17912  82.5022 307.6484 0018663 198.3729 161.6816 14.85357352 77529
COSMOS 1844             
1 17973U 87041A   26057.22738451  .00000023  00000+0  37032-4 0  9992
2 17973  70.8988  58.3524 0029415  35.5611 324.7464 14.14552807  1961
SL-14 R/B               
1 18153U 87055B   26056.35225129  .00000554  00000+0  60987-4 0  9998
2 18153  82.5021   0.6556 0022035  56.7873 303.5451 14.85611743 68104
COSMOS 1867             
1 18187U 87060A   26057.19355267 -.00000013  00000+0  32613-4 0  9997
2 18187  65.0125 338.8991 0014292 277.9519  81.9944 14.31501005 18290
SL-14 R/B               
1 18749U 88001B   26056.95290588  .00000534  00000+0  58963-4 0  9997
2 18749  82.5131 206.3972 0016594 277.8941  82.0392 14.85510591 40280
